TDRS 3                  
1 19548U 88091B   24139.44460309 -.00000296  00000+0  00000+0 0  9998
2 19548  13.1866 346.1346 0035968 344.4707  17.1007  1.00267799117771
FLTSATCOM 8 (USA 46)    
1 20253U 89077A   24138.97827458 -.00000365  00000+0  00000+0 0  9994
2 20253  12.6441 355.7443 0005962  44.1817 313.9422  1.00262534252994
SKYNET 4C               
1 20776U 90079A   24139.23868762  .00000129  00000+0  00000+0 0  9998
2 20776  13.5856 355.0082 0002388  56.4217 304.2313  1.00272429123279
TDRS 5                  
1 21639U 91054B   24139.09841201 -.00000298  00000+0  00000+0 0  9992
2 21639  14.1678 359.3324 0002270 274.5477 295.4663  1.00281579120096
TDRS 6                  
1 22314U 93003B   24139.51674486 -.00000290  00000+0  00000+0 0  9997
2 22314  14.1628   2.6336 0010073 147.1394 227.1066  1.00272262114794
UFO 2 (USA 95)          
1 22787U 93056A   24138.81588903  .00000129  00000+0  00000+0 0  9999
2 22787  11.6492   7.5322 0004932  47.3625 143.4914  1.00272937110925
USA 99 (MILSTAR-1 1)    
1 22988U 94009A   24139.36320625 -.00000191  00000+0  00000+0 0  9997
2 22988  16.4649  35.7684 0002614   2.7692 238.7249  1.00275661 25340
UFO 4 (USA 108)         
1 23467U 95003A   24139.55649066 -.00000015  00000+0  00000+0 0  9994
2 23467   9.7297  15.5716 0003481  70.9722 162.7866  1.00269329107327
AMSC 1                  
1 23553U 95019A   24139.26031793 -.00000088  00000+0  00000+0 0  9997
2 23553  12.6048  21.5648 0004747  23.2240 177.8784  1.00272100106554
TDRS 7                  
1 23613U 95035B   24139.51701588 -.00000195  00000+0  00000+0 0  9995
2 23613  13.6946 353.4431 0028255  67.6357  86.3621  1.00267068105636
USA 115 (MILSTAR-1 2)   
1 23712U 95060A   24139.52784208 -.00000014  00000+0  00000+0 0  9994
2 23712  13.7911   9.2435 0002332  22.4906 274.9426  1.00273842 25261
INMARSAT 3-F1           
1 23839U 96020A   24139.15954105 -.00000274  00000+0  00000+0 0  9993
2 23839   9.0054  53.1333 0005327  30.5144 167.6477  0.99995602102658
INMARSAT 3-F2           
1 24307U 96053A   24139.58042994  .00000108  00000+0  00000+0 0  9996
2 24307   8.1219  61.2158 0008214  10.6285 211.1388  0.99996159101327
INMARSAT 3-F3           
1 24674U 96070A   24139.45792130 -.00000148  00000+0  00000+0 0  9997
2 24674   8.6613  56.4610 0004448  10.2758  63.2961  0.99980928100310
GALAXY 25 (G-25)        
1 24812U 97026A   24139.52940650  .00000001  00000+0  00000+0 0  9990
2 24812   5.4668  76.4214 0012369 336.8726 280.1237  0.99089853 98694
INTELSAT 5 (IS-5)       
1 24916U 97046A   24138.61854792 -.00000056  00000+0  00000+0 0  9998
2 24916   8.7383  55.7251 0001401  33.2503 175.6380  1.00271702 97994
AMC-3 (GE-3)            
1 24936U 97050A   24139.47276678 -.00000249  00000+0  00000+0 0  9995
2 24936   6.2755  72.4812 0002972 345.2015 277.1523  1.00272489 44812
USA 134                 
1 25019U 97065A   24139.25836431 -.00000054  00000+0  00000+0 0  9993
2 25019  11.8754  27.0494 0003457   5.2656 184.8756  1.00271019 25337
INMARSAT 3-F5           
1 25153U 98006B   24139.41493106 -.00000279  00000+0  00000+0 0  9993
2 25153   7.9802  60.3400 0005120 354.7174 276.9033  1.00270034 96277
ASTRA 2A                
1 25462U 98050A   24139.46574958  .00000080  00000+0  00000+0 0  9994
2 25462   5.1736  77.7928 0003157 330.3948  53.3030  1.00271848 38724
SKYNET 4E               
1 25639U 99009B   24139.37480174 -.00000027  00000+0  00000+0 0  9993
2 25639  11.6176  13.2377 0002464  45.3868 311.6517  1.00274671 43764
ABS-6                   
1 25924U 99053A   24139.54450743 -.00000108  00000+0  00000+0 0  9997
2 25924   0.0256  74.5843 0003865   5.1442 152.0302  1.00271946 90222
UFO 10 (USA 146)        
1 25967U 99063A   24139.06299400 -.00000180  00000+0  00000+0 0  9993
2 25967   9.4529  30.7755 0000956  42.2223 163.1416  1.00272343 89722
GALAXY 11 (G-11)        
1 26038U 99071A   24139.55212280 -.00000042  00000+0  00000+0 0  9994
2 26038   4.7807  79.6484 0000637  49.6980 112.4272  1.00271901 89453
USA 148                 
1 26052U 00001A   24139.56422943  .00000046  00000+0  00000+0 0  9998
2 26052  10.6646  37.9372 0001378 325.3007 256.7781  1.00274186 25349
ASIASTAR                
1 26107U 00016A   24139.60095049 -.00000322  00000+0  00000+0 0  9991
2 26107   7.3383  65.8344 0004670 353.5575 138.7011  1.00270000 88302
USA 149 (DSP 20)        
1 26356U 00024A   24139.34840934  .00000101  00000+0  00000+0 0  9992
2 26356  12.5969  16.9940 0001496  75.2993 103.8454  1.00273508 25299
TDRS 8                  
1 26388U 00034A   24139.46299559  .00000106  00000+0  00000+0 0  9997
2 26388  11.4968  37.5056 0002076 289.2619 269.0757  1.00279212 87562
INTELSAT 9 (IS-9)       
1 26451U 00043A   24139.10882685 -.00000025  00000+0  00000+0 0  9998
2 26451   8.7239  55.9132 0002508 359.1160 215.0869  1.00375766 36526
NSS-11 (AAP-1)          
1 26554U 00059A   24139.56120125  .00000037  00000+0  00000+0 0  9995
2 26554   0.1576  87.1091 0003210 340.1284 187.5366  1.00273296 33672
USA 153                 
1 26575U 00065A   24139.59216045 -.00000316  00000+0  00000+0 0  9996
2 26575  10.3054  41.2151 0001472 346.9408 196.1629  1.00268244 25314
AMC-6 (GE-6)            
1 26580U 00067A   24139.50469286  .00000116  00000+0  00000+0 0  9999
2 26580   0.0473  87.7356 0002526 351.7196 199.8934  1.00271492 86272
INTELSAT 1R (IS-1R)     
1 26608U 00072A   24139.54294639 -.00000127  00000+0  00000+0 0  9991
2 26608   6.1941  72.9984 0000070 354.3215 161.9487  1.00271325 33704
ANIK F1                 
1 26624U 00076A   24139.52078684 -.00000050  00000+0  00000+0 0  9996
2 26624   3.2288  84.0715 0008830 352.8743 238.1082  1.00272038 35523
USA 157 (MILSTAR-2 2)   
1 26715U 01009A   24139.38569010  .00000020  00000+0  00000+0 0  9992
2 26715  10.7171  24.0036 0002911  16.2488 210.8601  1.00272024 25336
INTELSAT 10 (IS-10)     
1 26766U 01019A   24139.41473076 -.00000335  00000+0  00000+0 0  9999
2 26766   7.2549  66.9328 0003258 355.7518  93.5956  1.00144217 38000
INTELSAT 901 (IS-901)   
1 26824U 01024A   24139.44886720 -.00000192  00000+0  00000+0 0  9998
2 26824   0.0198  60.7702 0001169 348.9367 321.0080  1.00264226 15363
ASTRA 2C                
1 26853U 01025A   24139.34089505 -.00000248  00000+0  00000+0 0  9998
2 26853   6.2959  72.3092 0002946 340.8782 233.5723  1.00271372 37427
USA 159 (DSP 21)        
1 26880U 01033A   24139.12419028 -.00000291  00000+0  00000+0 0  9998
2 26880  12.0685  21.4877 0000907 243.6814 326.6762  1.00267122 25348
INTELSAT 902 (IS-902)   
1 26900U 01039A   24139.30124834 -.00000270  00000+0  00000+0 0  9992
2 26900   4.1866  80.9745 0004316   4.2920 209.5771  1.00271932 83072
USA 164 (MILSTAR-2 3)   
1 27168U 02001A   24139.32757729  .00000033  00000+0  00000+0 0  9992
2 27168  10.2810  25.9950 0100352 359.3068 345.2455  1.00276406 25330
INTELSAT 904 (IS-904)   
1 27380U 02007A   24139.23372296 -.00000203  00000+0  00000+0 0  9996
2 27380   5.0062  78.1704 0003156 339.1982 233.6579  1.00269156 44140
DIRECTV 5 (TEMPO 1)     
1 27426U 02023A   24139.52031057 -.00000043  00000+0  00000+0 0  9996
2 27426   2.9261  84.7733 0003536 343.1169 245.9871  1.00272036 80509
INTELSAT 905 (IS-905)   
1 27438U 02027A   24139.23476723 -.00000173  00000+0  00000+0 0  9998
2 27438   4.8314  78.8281 0002503 322.4751 255.1372  1.00272723 43741
GALAXY 3C (G-3C)        
1 27445U 02030A   24139.39228698 -.00000140  00000+0  00000+0 0  9997
2 27445   1.7664  87.1866 0002923  28.3140 167.4294  1.00272063 38878
INTELSAT 906 (IS-906)   
1 27513U 02041A   24139.53867455  .00000027  00000+0  00000+0 0  9994
2 27513   3.8623  82.2258 0003748 339.8414  72.6892  1.00272024 79416
TDRS 10                 
1 27566U 02055A   24139.57144531  .00000097  00000+0  00000+0 0  9991
2 27566   9.5094  45.6119 0007076 337.2969 248.5152  1.00266767 78614
NIMIQ 2                 
1 27632U 02062A   24139.44944605 -.00000056  00000+0  00000+0 0  9995
2 27632   7.6642  64.5006 0005487 354.4160 230.3006  1.00271446 36564
USA 167                 
1 27691U 03008A   24138.35463799  .00000057  00000+0  00000+0 0  9990
2 27691   9.4377  49.7364 0000686 304.2381 239.3708  1.00274432 25328
USA 169 (MILSTAR-2 4)   
1 27711U 03012A   24139.53940058 -.00000245  00000+0  00000+0 0  9997
2 27711  11.1873  35.5847 0100450   1.2852 186.1297  1.00274850 25335
ASIASAT 4               
1 27718U 03014A   24139.53595458 -.00000209  00000+0  00000+0 0  9996
2 27718   2.7527  85.3025 0002692 334.2422 157.6603  1.00271092 37686
HELLAS-SAT 2            
1 27811U 03020A   24139.16607162 -.00000071  00000+0  00000+0 0  9999
2 27811   5.4482  76.8269 0004904 334.1285 235.1777  1.00272102 35224
THURAYA-2               
1 27825U 03026A   24139.31091095  .00000135  00000+0  00000+0 0  9999
2 27825   7.6808  34.2723 0002630 357.1764   0.9591  1.00271485 76724
OPTUS C1                
1 27831U 03028B   24139.46087144 -.00000138  00000+0  00000+0 0  9998
2 27831   4.9727  78.5001 0006109 335.3089 144.4738  1.00272391 45443
GALAXY 23 (G-23)        
1 27854U 03034A   24139.50186397  .00000024  00000+0  00000+0 0  9998
2 27854   1.2302  89.3811 0002737 333.0494 234.0340  1.00272158 76129
USA 170                 
1 27875U 03040A   24137.04493807  .00000099  00000+0  00000+0 0  9994
2 27875   8.8667  54.6870 0003484 220.2561 351.8767  1.00275520 23984
GALAXY 13 (HORIZONS-1)  
1 27954U 03044A   24139.49879683  .00000144  00000+0  00000+0 0  9998
2 27954   0.0234  98.7638 0002335  90.2862  77.1720  1.00268928 38954
YAMAL 202               
1 28089U 03053A   24139.54942501 -.00000067  00000+0  00000+0 0  9999
2 28089   4.4153  80.0705 0003805 350.0773 167.8498  1.00271420 75087
UFO 11 (USA 174)        
1 28117U 03057A   24138.71577341 -.00000096  00000+0  00000+0 0  9991
2 28117   8.0208  36.8334 0003386  32.9916 139.1533  1.00272157 74827
